{
  "type": "FeatureCollection",
  "name": "3D_ULPIN_Pilot_Zones",
  "crs": {
    "type": "name",
    "properties": {
      "name": "urn:ogc:def:crs:OGC:1.3:CRS84"
    }
  },
  "features": [
    {
      "type": "Feature",
      "properties": {
        "zone_id": "MZ-1",
        "name": "Worli / Lower Parel / Fort / Nariman Point",
        "city": "Mumbai",
        "state": "Maharashtra",
        "ps_classes": ["B", "L", "U", "C", "P", "A", "T", "E"],
        "data_provenance": "REAL"
      },
      "geometry": {
        "type": "Polygon",
        "coordinates": [
          [
            [72.8120, 18.9950],
            [72.8350, 18.9950],
            [72.8420, 18.9400],
            [72.8340, 18.9220],
            [72.8210, 18.9220],
            [72.8110, 18.9550],
            [72.8120, 18.9950]
          ]
        ]
      }
    },
    {
      "type": "Feature",
      "properties": {
        "zone_id": "MZ-2",
        "name": "Dharavi / Mahim / BKC",
        "city": "Mumbai",
        "state": "Maharashtra",
        "ps_classes": ["B", "L", "U", "T"],
        "data_provenance": "REAL"
      },
      "geometry": {
        "type": "Polygon",
        "coordinates": [
          [
            [72.8450, 19.0750],
            [72.8780, 19.0750],
            [72.8780, 19.0500],
            [72.8520, 19.0400],
            [72.8410, 19.0520],
            [72.8450, 19.0750]
          ]
        ]
      }
    },
    {
      "type": "Feature",
      "properties": {
        "zone_id": "BZ-1",
        "name": "Bengaluru CBD / MG Road / Shivajinagar / Cantonment",
        "city": "Bengaluru",
        "state": "Karnataka",
        "ps_classes": ["T", "E", "I", "S", "B", "L", "U"],
        "data_provenance": "REAL"
      },
      "geometry": {
        "type": "Polygon",
        "coordinates": [
          [
            [77.5850, 13.0020],
            [77.6250, 13.0020],
            [77.6250, 12.9650],
            [77.5850, 12.9650],
            [77.5850, 13.0020]
          ]
        ]
      }
    },
    {
      "type": "Feature",
      "properties": {
        "zone_id": "BZ-2",
        "name": "Whitefield / EPIP Zone / Bellandur",
        "city": "Bengaluru",
        "state": "Karnataka",
        "ps_classes": ["B", "L", "U", "P", "E", "I"],
        "data_provenance": "REAL"
      },
      "geometry": {
        "type": "Polygon",
        "coordinates": [
          [
            [77.7100, 12.9980],
            [77.7550, 12.9980],
            [77.7550, 12.9600],
            [77.7100, 12.9600],
            [77.7100, 12.9980]
          ]
        ]
      }
    }
  ]
}
