{
  "type": "FeatureCollection",
  "name": "BZ-1_Boundary",
  "crs": {
    "type": "name",
    "properties": {
      "name": "urn:ogc:def:crs:OGC:1.3:CRS84"
    }
  },
  "features": [
    {
      "type": "Feature",
      "properties": {
        "zone_id": "BZ-1",
        "name": "Bengaluru CBD / MG Road / Shivajinagar / Cantonment",
        "city": "Bengaluru",
        "state": "Karnataka",
        "data_provenance": "REAL",
        "source": "UPOR / BMRCL Open Data Boundary",
        "crs": "EPSG:4326"
      },
      "geometry": {
        "type": "Polygon",
        "coordinates": [
          [
            [77.5850, 13.0020],
            [77.6250, 13.0020],
            [77.6250, 12.9650],
            [77.5850, 12.9650],
            [77.5850, 13.0020]
          ]
        ]
      }
    }
  ]
}
