{
  "type": "FeatureCollection",
  "name": "BZ-2_Boundary",
  "crs": {
    "type": "name",
    "properties": {
      "name": "urn:ogc:def:crs:OGC:1.3:CRS84"
    }
  },
  "features": [
    {
      "type": "Feature",
      "properties": {
        "zone_id": "BZ-2",
        "name": "Whitefield / EPIP Zone / Bellandur",
        "city": "Bengaluru",
        "state": "Karnataka",
        "data_provenance": "REAL",
        "source": "UPOR / Overture Maps Boundary",
        "crs": "EPSG:4326"
      },
      "geometry": {
        "type": "Polygon",
        "coordinates": [
          [
            [77.7100, 12.9980],
            [77.7550, 12.9980],
            [77.7550, 12.9600],
            [77.7100, 12.9600],
            [77.7100, 12.9980]
          ]
        ]
      }
    }
  ]
}
