{
  "type": "FeatureCollection",
  "name": "MZ-1_Boundary",
  "crs": {
    "type": "name",
    "properties": {
      "name": "urn:ogc:def:crs:OGC:1.3:CRS84"
    }
  },
  "features": [
    {
      "type": "Feature",
      "properties": {
        "zone_id": "MZ-1",
        "name": "Worli / Lower Parel / Fort / Nariman Point",
        "city": "Mumbai",
        "state": "Maharashtra",
        "data_provenance": "REAL",
        "source": "MCGM Open GIS / Overture Maps Boundary",
        "crs": "EPSG:4326"
      },
      "geometry": {
        "type": "Polygon",
        "coordinates": [
          [
            [72.8120, 18.9950],
            [72.8350, 18.9950],
            [72.8420, 18.9400],
            [72.8340, 18.9220],
            [72.8210, 18.9220],
            [72.8110, 18.9550],
            [72.8120, 18.9950]
          ]
        ]
      }
    }
  ]
}
